0 DNEPR 1 R/B
1 26550U 00057F   13281.52951703  .00000051  00000-0  57605-4 0  1093
2 26550 064.5631 283.3917 0511849 065.0753 064.5583 13.80228376656707
0 DNEPR 1 R/B
1 26550U 00057F   13283.62773948  .00000084  00000-0  69243-4 0  1108
2 26550 064.5631 277.8759 0511960 064.5451 050.2779 13.80229776656997
0 DNEPR 1 R/B
1 26550U 00057F   13286.15520858  .00000046  00000-0  55707-4 0  1118
2 26550 064.5632 271.2315 0512058 063.9124 008.8566 13.80230756657346
0 DNEPR 1 R/B
1 26550U 00057F   13288.18505584  .00000134  00000-0  86480-4 0  1123
2 26550 064.5635 265.8952 0512104 063.4055 014.8398 13.80231601657626
0 DNEPR 1 R/B
1 26550U 00057F   13290.51489855  .00000150  00000-0  92055-4 0  1139
2 26550 064.5639 259.7705 0512240 062.8174 071.4684 13.80232478657949
0 DNEPR 1 R/B
1 26550U 00057F   13293.18588328  .00000203  00000-0  11065-3 0  1141
2 26550 064.5640 252.7495 0512346 062.1476 023.1842 13.80233436658312
0 DNEPR 1 R/B
1 26550U 00057F   13295.44046087  .00000193  00000-0  10723-3 0  1152
2 26550 064.5640 246.8230 0512445 061.5814 065.8434 13.80235107658623
